{
    "links": {
        "self": "http://www.neowsapp.com/rest/v1/neo/3607729?api_key=iIulBulltgU6a56xZRHN4H3l9WmuAYTsLGpBGhQ2"
    },
    "id": "3607729",
    "neo_reference_id": "3607729",
    "name": "(2012 QD8)",
    "designation": "2012 QD8",
    "nasa_jpl_url": "http://ssd.jpl.nasa.gov/sbdb.cgi?sstr=3607729",
    "absolute_magnitude_h": 23.1,
    "estimated_diameter": {
        "kilometers": {
            "estimated_diameter_min": 0.063760979,
            "estimated_diameter_max": 0.1425738833
        },
        "meters": {
            "estimated_diameter_min": 63.7609789875,
            "estimated_diameter_max": 142.5738833281
        },
        "miles": {
            "estimated_diameter_min": 0.0396192233,
            "estimated_diameter_max": 0.0885912765
        },
        "feet": {
            "estimated_diameter_min": 209.1895703015,
            "estimated_diameter_max": 467.7620993781
        }
    },
    "is_potentially_hazardous_asteroid": false,
    "close_approach_data": [
        {
            "close_approach_date": "1975-08-30",
            "close_approach_date_full": "1975-Aug-30 16:19",
            "epoch_date_close_approach": 178647540000,
            "relative_velocity": {
                "kilometers_per_second": "24.7406830266",
                "kilometers_per_hour": "89066.4588956423",
                "miles_per_hour": "55342.4338621284"
            },
            "miss_distance": {
                "astronomical": "0.1358534538",
                "lunar": "52.8469935282",
                "kilometers": "20323387.320623406",
                "miles": "12628367.2958627628"
            },
            "orbiting_body": "Earth"
        },
        {
            "close_approach_date": "1975-09-22",
            "close_approach_date_full": "1975-Sep-22 12:07",
            "epoch_date_close_approach": 180619620000,
            "relative_velocity": {
                "kilometers_per_second": "19.1640118888",
                "kilometers_per_hour": "68990.4427998294",
                "miles_per_hour": "42867.9781941496"
            },
            "miss_distance": {
                "astronomical": "0.0675111943",
                "lunar": "26.2618545827",
                "kilometers": "10099530.868436141",
                "miles": "6275557.4801791058"
            },
            "orbiting_body": "Venus"
        },
        {
            "close_approach_date": "2012-09-09",
            "close_approach_date_full": "2012-Sep-09 03:53",
            "epoch_date_close_approach": 1347162780000,
            "relative_velocity": {
                "kilometers_per_second": "19.5398989468",
                "kilometers_per_hour": "70343.6362085394",
                "miles_per_hour": "43708.7999541338"
            },
            "miss_distance": {
                "astronomical": "0.0434188775",
                "lunar": "16.8899433475",
                "kilometers": "6495371.591790925",
                "miles": "4036036.753627765"
            },
            "orbiting_body": "Earth"
        },
        {
            "close_approach_date": "2018-03-27",
            "close_approach_date_full": "2018-Mar-27 08:02",
            "epoch_date_close_approach": 1522137720000,
            "relative_velocity": {
                "kilometers_per_second": "31.869026426",
                "kilometers_per_hour": "114728.4951337634",
                "miles_per_hour": "71287.825212421"
            },
            "miss_distance": {
                "astronomical": "0.3711910987",
                "lunar": "144.3933373943",
                "kilometers": "55529397.728479769",
                "miles": "34504367.7596840522"
            },
            "orbiting_body": "Earth"
        },
        {
            "close_approach_date": "2020-07-16",
            "close_approach_date_full": "2020-Jul-16 04:59",
            "epoch_date_close_approach": 1594875540000,
            "relative_velocity": {
                "kilometers_per_second": "17.7336997196",
                "kilometers_per_hour": "63841.3189905481",
                "miles_per_hour": "39668.5129027659"
            },
            "miss_distance": {
                "astronomical": "0.0942561813",
                "lunar": "36.6656545257",
                "kilometers": "14100523.956813831",
                "miles": "8761659.3032236278"
            },
            "orbiting_body": "Mars"
        }
    ],
    "orbital_data": {
        "orbit_id": "14",
        "orbit_determination_date": "2017-04-06 08:49:16",
        "first_observation_date": "2012-08-17",
        "last_observation_date": "2012-09-06",
        "data_arc_in_days": 20,
        "observations_used": 41,
        "orbit_uncertainty": "7",
        "minimum_orbit_intersection": ".00215297",
        "jupiter_tisserand_invariant": "3.583",
        "epoch_osculation": "2459000.5",
        "eccentricity": ".6979863921197875",
        "semi_major_axis": "1.913729689008408",
        "inclination": "5.57911525846072",
        "ascending_node_longitude": "348.7529194764676",
        "orbital_period": "966.9840675521426",
        "perihelion_distance": ".5779724078849062",
        "perihelion_argument": "87.76969924428052",
        "aphelion_distance": "3.249486970131909",
        "perihelion_time": "2459129.249277497823",
        "mean_anomaly": "312.067731564029",
        "mean_motion": ".3722915527567239",
        "equinox": "J2000",
        "orbit_class": {
            "orbit_class_type": "APO",
            "orbit_class_description": "Near-Earth asteroid orbits which cross the Earth’s orbit similar to that of 1862 Apollo",
            "orbit_class_range": "a (semi-major axis) > 1.0 AU; q (perihelion) < 1.017 AU"
        }
    },
    "is_sentry_object": false
}